{"type": "FeatureCollection", "features": [ {"type": "Feature", "properties": {"norad_id": 31916, "name": "FENGYUN 1C DEB", "group": "fengyun-1c-debris", "lat": -9.778596338635447, "lon": 68.301181700677, "alt_km": 839.8698194826156, "timestamp": "2025-12-07T20:38:14.348450+00:00", "meta": {"OBJECT_NAME": "FENGYUN 1C DEB", "OBJECT_ID": "1999-025CLT", "EPOCH": "2025-12-05T11:41:08.602368", "MEAN_MOTION": 14.32408878, "ECCENTRICITY": 0.01472648, "INCLINATION": 99.3314, "RA_OF_ASC_NODE": 64.1245, "ARG_OF_PERICENTER": 117.4752, "MEAN_ANOMALY": 244.1489, "EPHEMERIS_TYPE": 0, "CLASSIFICATION_TYPE": "U", "NORAD_CAT_ID": 31916, "ELEMENT_SET_NO": 999, "REV_AT_EPOCH": 64423, "BSTAR": 0.0031688635, "MEAN_MOTION_DOT": 9.627e-05, "MEAN_MOTION_DDOT": 0}, "tle": {"line1": "1 31916U 99025CLT 25339.48690512  .00009627  00000+0  31689-2 0  9994", "line2": "2 31916  99.3314  64.1245 0147264 117.4752 244.1489 14.32408878644230"}}, "geometry": {"type": "Point", "coordinates": [68.301181700677, -9.778596338635447]}}, {"type": "Feature", "properties": {"norad_id": 31917, "name": "FENGYUN 1C DEB", "group": "fengyun-1c-debris", "lat": -16.693806303233007, "lon": 152.2417065576113, "alt_km": 818.615535885252, "timestamp": "2025-12-07T20:38:14.348461+00:00", "meta": {"OBJECT_NAME": "FENGYUN 1C DEB", "OBJECT_ID": "1999-025CLU", "EPOCH": "2025-12-02T06:07:47.080128", "MEAN_MOTION": 14.37534307, "ECCENTRICITY": 0.01898264, "INCLINATION": 98.3598, "RA_OF_ASC_NODE": 329.3164, "ARG_OF_PERICENTER": 324.9516, "MEAN_ANOMALY": 46.343, "EPHEMERIS_TYPE": 0, "CLASSIFICATION_TYPE": "U", "NORAD_CAT_ID": 31917, "ELEMENT_SET_NO": 999, "REV_AT_EPOCH": 96271, "BSTAR": 0.00097434798, "MEAN_MOTION_DOT": 3.546e-05, "MEAN_MOTION_DDOT": 0}, "tle": {"line1": "1 31917U 99025CLU 25336.25540602  .00003546  00000+0  97435-3 0  9997", "line2": "2 31917  98.3598 329.3164 0189826 324.9516  46.3430 14.37534307962719"}}, "geometry": {"type": "Point", "coordinates": [152.2417065576113, -16.693806303233007]}}, {"type": "Feature", "properties": {"norad_id": 31919, "name": "FENGYUN 1C DEB", "group": "fengyun-1c-debris", "lat": -63.752952385969344, "lon": -75.05525692894003, "alt_km": 680.3813029635876, "timestamp": "2025-12-07T20:38:14.348471+00:00", "meta": {"OBJECT_NAME": "FENGYUN 1C DEB", "OBJECT_ID": "1999-025CLW", "EPOCH": "2025-12-07T03:43:14.673216", "MEAN_MOTION": 14.45718281, "ECCENTRICITY": 0.01020338, "INCLINATION": 99.1017, "RA_OF_ASC_NODE": 123.1617, "ARG_OF_PERICENTER": 223.2307, "MEAN_ANOMALY": 315.1145, "EPHEMERIS_TYPE": 0, "CLASSIFICATION_TYPE": "U", "NORAD_CAT_ID": 31919, "ELEMENT_SET_NO": 999, "REV_AT_EPOCH": 97000, "BSTAR": 0.00092717578, "MEAN_MOTION_DOT": 3.448e-05, "MEAN_MOTION_DDOT": 0}, "tle": {"line1": "1 31919U 99025CLW 25341.15503094  .00003448  00000+0  92718-3 0  9998", "line2": "2 31919  99.1017 123.1617 0102033 223.2307 315.1145 14.45718281970008"}}, "geometry": {"type": "Point", "coordinates": [-75.05525692894003, -63.752952385969344]}}, {"type": "Feature", "properties": {"norad_id": 31921, "name": "FENGYUN 1C DEB", "group": "fengyun-1c-debris", "lat": 77.03040223297187, "lon": -171.27563270348568, "alt_km": 1116.025393078311, "timestamp": "2025-12-07T20:38:14.348481+00:00", "meta": {"OBJECT_NAME": "FENGYUN 1C DEB", "OBJECT_ID": "1999-025CLY", "EPOCH": "2025-11-28T10:59:40.701408", "MEAN_MOTION": 13.75221873, "ECCENTRICITY": 0.02030283, "INCLINATION": 99.3395, "RA_OF_ASC_NODE": 225.1205, "ARG_OF_PERICENTER": 302.7278, "MEAN_ANOMALY": 55.4443, "EPHEMERIS_TYPE": 0, "CLASSIFICATION_TYPE": "U", "NORAD_CAT_ID": 31921, "ELEMENT_SET_NO": 999, "REV_AT_EPOCH": 92110, "BSTAR": 0.0013372517, "MEAN_MOTION_DOT": 1.443e-05, "MEAN_MOTION_DDOT": 0}, "tle": {"line1": "1 31921U 99025CLY 25332.45810997  .00001443  00000+0  13373-2 0  9999", "line2": "2 31921  99.3395 225.1205 0203028 302.7278  55.4443 13.75221873921104"}}, "geometry": {"type": "Point", "coordinates": [-171.27563270348568, 77.03040223297187]}}, {"type": "Feature", "properties": {"norad_id": 31922, "name": "FENGYUN 1C DEB", "group": "fengyun-1c-debris", "lat": 61.3447789105973, "lon": 170.0487009105087, "alt_km": 907.5835487585928, "timestamp": "2025-12-07T20:38:14.348491+00:00", "meta": {"OBJECT_NAME": "FENGYUN 1C DEB", "OBJECT_ID": "1999-025CLZ", "EPOCH": "2025-12-06T21:52:02.762976", "MEAN_MOTION": 13.86569445, "ECCENTRICITY": 0.01614987, "INCLINATION": 98.805, "RA_OF_ASC_NODE": 332.6787, "ARG_OF_PERICENTER": 42.2376, "MEAN_ANOMALY": 20.0533, "EPHEMERIS_TYPE": 0, "CLASSIFICATION_TYPE": "U", "NORAD_CAT_ID": 31922, "ELEMENT_SET_NO": 999, "REV_AT_EPOCH": 92936, "BSTAR": 0.0023377454, "MEAN_MOTION_DOT": 2.97e-05, "MEAN_MOTION_DDOT": 0}, "tle": {"line1": "1 31922U 99025CLZ 25340.91114309  .00002970  00000+0  23377-2 0  9995", "line2": "2 31922  98.8050 332.6787 0161498  42.2376  20.0533 13.86569445929361"}}, "geometry": {"type": "Point", "coordinates": [170.0487009105087, 61.3447789105973]}}, {"type": "Feature", "properties": {"norad_id": 31923, "name": "FENGYUN 1C DEB", "group": "fengyun-1c-debris", "lat": 39.61639834270582, "lon": -96.63810647114444, "alt_km": 1273.757421272836, "timestamp": "2025-12-07T20:38:14.348501+00:00", "meta": {"OBJECT_NAME": "FENGYUN 1C DEB", "OBJECT_ID": "1999-025CMA", "EPOCH": "2025-12-07T05:45:32.283936", "MEAN_MOTION": 13.54870138, "ECCENTRICITY": 0.02998306, "INCLINATION": 98.439, "RA_OF_ASC_NODE": 75.7726, "ARG_OF_PERICENTER": 318.1759, "MEAN_ANOMALY": 39.6815, "EPHEMERIS_TYPE": 0, "CLASSIFICATION_TYPE": "U", "NORAD_CAT_ID": 31923, "ELEMENT_SET_NO": 999, "REV_AT_EPOCH": 63560, "BSTAR": 0.0019569424, "MEAN_MOTION_DOT": 1.755e-05, "MEAN_MOTION_DDOT": 0}, "tle": {"line1": "1 31923U 99025CMA 25341.23995699  .00001755  00000+0  19569-2 0  9999", "line2": "2 31923  98.4390  75.7726 0299830 318.1759  39.6815 13.54870138635604"}}, "geometry": {"type": "Point", "coordinates": [-96.63810647114444, 39.61639834270582]}}, {"type": "Feature", "properties": {"norad_id": 31924, "name": "FENGYUN 1C DEB", "group": "fengyun-1c-debris", "lat": -69.83015854850598, "lon": -63.85982722010624, "alt_km": 1185.442952551889, "timestamp": "2025-12-07T20:38:14.348511+00:00", "meta": {"OBJECT_NAME": "FENGYUN 1C DEB", "OBJECT_ID": "1999-025CMB", "EPOCH": "2025-12-06T09:58:46.050528", "MEAN_MOTION": 13.63882234, "ECCENTRICITY": 0.02732969, "INCLINATION": 98.4014, "RA_OF_ASC_NODE": 138.613, "ARG_OF_PERICENTER": 113.6676, "MEAN_ANOMALY": 249.3407, "EPHEMERIS_TYPE": 0, "CLASSIFICATION_TYPE": "U", "NORAD_CAT_ID": 31924, "ELEMENT_SET_NO": 999, "REV_AT_EPOCH": 91381, "BSTAR": 0.0024555476, "MEAN_MOTION_DOT": 2.479e-05, "MEAN_MOTION_DDOT": 0}, "tle": {"line1": "1 31924U 99025CMB 25340.41581077  .00002479  00000+0  24555-2 0  9995", "line2": "2 31924  98.4014 138.6130 0273296 113.6676 249.3407 13.63882234913819"}}, "geometry": {"type": "Point", "coordinates": [-63.85982722010624, -69.83015854850598]}}, {"type": "Feature", "properties": {"norad_id": 31926, "name": "FENGYUN 1C DEB", "group": "fengyun-1c-debris", "lat": -47.11600786841768, "lon": -112.83002520539782, "alt_km": 774.9565488739499, "timestamp": "2025-12-07T20:38:14.348520+00:00", "meta": {"OBJECT_NAME": "FENGYUN 1C DEB", "OBJECT_ID": "1999-025CMD", "EPOCH": "2025-12-05T05:27:57.833280", "MEAN_MOTION": 14.30581279, "ECCENTRICITY": 0.00384495, "INCLINATION": 98.9589, "RA_OF_ASC_NODE": 74.239, "ARG_OF_PERICENTER": 274.7354, "MEAN_ANOMALY": 84.9437, "EPHEMERIS_TYPE": 0, "CLASSIFICATION_TYPE": "U", "NORAD_CAT_ID": 31926, "ELEMENT_SET_NO": 999, "REV_AT_EPOCH": 95120, "BSTAR": 0.0047754218, "MEAN_MOTION_DOT": 0.00012536, "MEAN_MOTION_DDOT": 0}, "tle": {"line1": "1 31926U 99025CMD 25339.22775270  .00012536  00000+0  47754-2 0  9995", "line2": "2 31926  98.9589  74.2390 0038449 274.7354  84.9437 14.30581279951208"}}, "geometry": {"type": "Point", "coordinates": [-112.83002520539782, -47.11600786841768]}}, {"type": "Feature", "properties": {"norad_id": 31929, "name": "FENGYUN 1C DEB", "group": "fengyun-1c-debris", "lat": -68.20853531019519, "lon": -91.65227318352892, "alt_km": 835.9346244988174, "timestamp": "2025-12-07T20:38:14.348531+00:00", "meta": {"OBJECT_NAME": "FENGYUN 1C DEB", "OBJECT_ID": "1999-025CME", "EPOCH": "2025-12-06T01:38:29.518080", "MEAN_MOTION": 14.34908264, "ECCENTRICITY": 0.00745832, "INCLINATION": 98.7915, "RA_OF_ASC_NODE": 109.2976, "ARG_OF_PERICENTER": 74.8463, "MEAN_ANOMALY": 286.0955, "EPHEMERIS_TYPE": 0, "CLASSIFICATION_TYPE": "U", "NORAD_CAT_ID": 31929, "ELEMENT_SET_NO": 999, "REV_AT_EPOCH": 70550, "BSTAR": 0.00079666919, "MEAN_MOTION_DOT": 2.292e-05, "MEAN_MOTION_DDOT": 0}, "tle": {"line1": "1 31929U 99025CME 25340.06839720  .00002292  00000+0  79667-3 0  9990", "line2": "2 31929  98.7915 109.2976 0074583  74.8463 286.0955 14.34908264705501"}}, "geometry": {"type": "Point", "coordinates": [-91.65227318352892, -68.20853531019519]}}, {"type": "Feature", "properties": {"norad_id": 31931, "name": "FENGYUN 1C DEB", "group": "fengyun-1c-debris", "lat": 11.603936992784709, "lon": 115.02055613777782, "alt_km": 1219.2022048677554, "timestamp": "2025-12-07T20:38:14.348541+00:00", "meta": {"OBJECT_NAME": "FENGYUN 1C DEB", "OBJECT_ID": "1999-025CMG", "EPOCH": "2025-12-06T02:37:15.367296", "MEAN_MOTION": 13.4259978, "ECCENTRICITY": 0.04234761, "INCLINATION": 97.8127, "RA_OF_ASC_NODE": 292.0432, "ARG_OF_PERICENTER": 286.9144, "MEAN_ANOMALY": 68.5983, "EPHEMERIS_TYPE": 0, "CLASSIFICATION_TYPE": "U", "NORAD_CAT_ID": 31931, "ELEMENT_SET_NO": 999, "REV_AT_EPOCH": 65133, "BSTAR": 0.0020646494, "MEAN_MOTION_DOT": 1.961e-05, "MEAN_MOTION_DDOT": 0}, "tle": {"line1": "1 31931U 99025CMG 25340.10920564  .00001961  00000+0  20646-2 0  9999", "line2": "2 31931  97.8127 292.0432 0423476 286.9144  68.5983 13.42599780651330"}}, "geometry": {"type": "Point", "coordinates": [115.02055613777782, 11.603936992784709]}}]}